0 ARABSAT 3A
1 25638U 99009A   13281.86907691 -.00000243  00000-0  10000-3 0  2955
2 25638 004.3048 064.3686 0002774 156.5632 203.5747 01.00120625 53582
0 ARABSAT 3A
1 25638U 99009A   13282.86782175  .00000000  00000-0  10000-3 0  2976
2 25638 004.3080 064.3492 0002733 162.2893 197.8403 01.00116572 53592
0 ARABSAT 3A
1 25638U 99009A   13286.86293048 -.00000230  00000-0  10000-3 0  2972
2 25638 004.3148 064.3199 0002650 154.7982 205.3507 01.00118914 53631
0 ARABSAT 3A
1 25638U 99009A   13287.86171308 -.00000225  00000-0  10000-3 0  2982
2 25638 004.3170 064.3098 0002809 158.8513 201.2972 01.00118579 53644
0 ARABSAT 3A
1 25638U 99009A   13290.85789738 -.00000207  00000-0  10000-3 0  2998
2 25638 004.3231 064.2816 0002817 157.8967 202.1948 01.00117703 53674
0 ARABSAT 3A
1 25638U 99009A   13293.85404469 -.00000186  00000-0  10000-3 0  3005
2 25638 004.3293 064.2523 0002943 159.3296 200.6863 01.00116954 53709
